[{"OBJECT_NAME":"STARLINK-34419","OBJECT_ID":"2025-129A","EPOCH":"2026-03-09T10:09:51.623424","MEAN_MOTION":14.98328443,"ECCENTRICITY":0.00031614,"INCLINATION":70.0005,"RA_OF_ASC_NODE":75.2708,"ARG_OF_PERICENTER":269.3524,"MEAN_ANOMALY":90.7273,"EPHEMERIS_TYPE":0,"CLASSIFICATION_TYPE":"U","NORAD_CAT_ID":64412,"ELEMENT_SET_NO":999,"REV_AT_EPOCH":4126,"BSTAR":0.00033187952,"MEAN_MOTION_DOT":3.869e-5,"MEAN_MOTION_DDOT":0},{"OBJECT_NAME":"OBJECT U","OBJECT_ID":"2017-042U","EPOCH":"2026-03-09T22:07:56.164512","MEAN_MOTION":15.00675308,"ECCENTRICITY":0.00148173,"INCLINATION":97.4238,"RA_OF_ASC_NODE":229.7372,"ARG_OF_PERICENTER":56.7191,"MEAN_ANOMALY":303.5451,"EPHEMERIS_TYPE":0,"CLASSIFICATION_TYPE":"U","NORAD_CAT_ID":42843,"ELEMENT_SET_NO":999,"REV_AT_EPOCH":47173,"BSTAR":0.00030670501,"MEAN_MOTION_DOT":3.834e-5,"MEAN_MOTION_DDOT":0}]
